*******************************************************************************
Ephemeris / WWW_USER Fri Mar  7 10:24:26 2025 Pasadena, USA      / Horizons    
*******************************************************************************
Target body name: (2018 RC)                       {source: JPL#21}
Center body name: Earth (399)                     {source: DE441}
Center-site name: Mauna Kea
*******************************************************************************
Start time      : A.D. 2018-Aug-09 05:04:00.0000 UT      
Stop  time      : A.D. 2018-Aug-09 15:50:00.0000 UT      
Step-size       : 1 minutes
*******************************************************************************
Target pole/equ : undefined
Target radii    : undefined                                                    
Center geodetic : 204.5278, 19.8260847, 4.21024   {E-lon(deg),Lat(deg),Alt(km)}
Center cylindric: 204.5278, 6006.35451, 2151.0229 {E-lon(deg),Dxy(km),Dz(km)}
Center pole/equ : ITRF93                          {East-longitude positive}
Center radii    : 6378.137, 6378.137, 6356.752 km {Equator_a, b, pole_c}       
Target primary  : Sun
Vis. interferer : MOON (R_eq= 1737.400) km        {source: DE441}
Rel. light bend : Sun                             {source: DE441}
Rel. lght bnd GM: 1.3271E+11 km^3/s^2                                          
Small-body perts: Yes                             {source: SB441-N16}
Atmos refraction: NO (AIRLESS)
RA format       : HMS
Time format     : CAL 
Calendar mode   : Mixed Julian/Gregorian
RTS-only print  : NO       
EOP file        : eop.250306.p250602                                           
EOP coverage    : DATA-BASED 1962-JAN-20 TO 2025-MAR-06. PREDICTS-> 2025-JUN-01
Units conversion: 1 au= 149597870.700 km, c= 299792.458 km/s, 1 day= 86400.0 s 
Table cut-offs 1: Elevation (-90.0deg=NO ),Airmass (>38.000=NO), Daylight (YES)
Table cut-offs 2: Solar elongation (  0.0,180.0=NO ),Local Hour Angle( 0.0=NO )
Table cut-offs 3: RA/DEC angular rate (     0.0=NO )                           
*******************************************************************************
Initial IAU76/J2000 heliocentric ecliptic osculating elements (au, days, deg.):
  EPOCH=  2458369.5 ! 2018-Sep-08.00 (TDB)         Residual RMS= .84866        
   EC= .2426621660028976   QR= .647471518312811    TP= 2458473.8617576878      
   OM= 346.8893436915528   W=  145.8737085184167   IN= 1.612045057594462       
  Equivalent ICRF heliocentric cartesian coordinates (au, au/d):
   X= 9.781363708094483E-01  Y=-2.377942828764822E-01  Z=-1.040448782093900E-01
  VX= 1.501011538102481E-03 VY= 1.393070215815854E-02 VZ= 6.509326736836346E-03
Asteroid physical parameters (km, seconds, rotational period in hours):        
   GM= n.a.                RAD= n.a.               ROTPER= .16548              
   H= 24.93                G= .150                 B-V= n.a.                   
                           ALBEDO= n.a.            STYP= n.a.                  
*******************************************************************************
 Date__(UT)__HR:MN     R.A._________(ICRF)_________DEC
******************************************************
$$SOE
 2018-Aug-09 11:13     01 24 35.671415 +00 10 23.40006
 2018-Aug-09 11:14     01 24 35.685449 +00 10 23.51493
 2018-Aug-09 11:15     01 24 35.699391 +00 10 23.62979
 2018-Aug-09 11:16     01 24 35.713243 +00 10 23.74464
 2018-Aug-09 11:17     01 24 35.727004 +00 10 23.85947
 2018-Aug-09 11:18     01 24 35.740675 +00 10 23.97429
 2018-Aug-09 11:19     01 24 35.754256 +00 10 24.08910
 2018-Aug-09 11:20     01 24 35.767747 +00 10 24.20390
 2018-Aug-09 11:21     01 24 35.781149 +00 10 24.31869
 2018-Aug-09 11:22     01 24 35.794462 +00 10 24.43346
 2018-Aug-09 11:23     01 24 35.807686 +00 10 24.54822
 2018-Aug-09 11:24     01 24 35.820822 +00 10 24.66297
 2018-Aug-09 11:25     01 24 35.833870 +00 10 24.77771
 2018-Aug-09 11:26     01 24 35.846830 +00 10 24.89244
 2018-Aug-09 11:27     01 24 35.859703 +00 10 25.00715
 2018-Aug-09 11:28     01 24 35.872488 +00 10 25.12185
 2018-Aug-09 11:29     01 24 35.885187 +00 10 25.23654
 2018-Aug-09 11:30     01 24 35.897800 +00 10 25.35122
 2018-Aug-09 11:31     01 24 35.910327 +00 10 25.46589
 2018-Aug-09 11:32     01 24 35.922768 +00 10 25.58054
 2018-Aug-09 11:33     01 24 35.935124 +00 10 25.69518
 2018-Aug-09 11:34     01 24 35.947395 +00 10 25.80981
 2018-Aug-09 11:35     01 24 35.959581 +00 10 25.92443
 2018-Aug-09 11:36     01 24 35.971683 +00 10 26.03903
 2018-Aug-09 11:37     01 24 35.983701 +00 10 26.15363
 2018-Aug-09 11:38     01 24 35.995636 +00 10 26.26821
 2018-Aug-09 11:39     01 24 36.007487 +00 10 26.38277
 2018-Aug-09 11:40     01 24 36.019256 +00 10 26.49733
 2018-Aug-09 11:41     01 24 36.030942 +00 10 26.61187
 2018-Aug-09 11:42     01 24 36.042546 +00 10 26.72640
 2018-Aug-09 11:43     01 24 36.054068 +00 10 26.84092
 2018-Aug-09 11:44     01 24 36.065509 +00 10 26.95543
 2018-Aug-09 11:45     01 24 36.076869 +00 10 27.06992
 2018-Aug-09 11:46     01 24 36.088148 +00 10 27.18440
 2018-Aug-09 11:47     01 24 36.099347 +00 10 27.29887
 2018-Aug-09 11:48     01 24 36.110466 +00 10 27.41332
 2018-Aug-09 11:49     01 24 36.121506 +00 10 27.52777
 2018-Aug-09 11:50     01 24 36.132467 +00 10 27.64220
 2018-Aug-09 11:51     01 24 36.143348 +00 10 27.75661
 2018-Aug-09 11:52     01 24 36.154151 +00 10 27.87102
 2018-Aug-09 11:53     01 24 36.164877 +00 10 27.98541
 2018-Aug-09 11:54     01 24 36.175524 +00 10 28.09979
 2018-Aug-09 11:55     01 24 36.186095 +00 10 28.21416
 2018-Aug-09 11:56     01 24 36.196588 +00 10 28.32851
 2018-Aug-09 11:57     01 24 36.207005 +00 10 28.44285
 2018-Aug-09 11:58     01 24 36.217346 +00 10 28.55718
 2018-Aug-09 11:59     01 24 36.227611 +00 10 28.67150
 2018-Aug-09 12:00     01 24 36.237801 +00 10 28.78580
 2018-Aug-09 12:01     01 24 36.247916 +00 10 28.90009
 2018-Aug-09 12:02     01 24 36.257956 +00 10 29.01437
 2018-Aug-09 12:03     01 24 36.267922 +00 10 29.12863
 2018-Aug-09 12:04     01 24 36.277815 +00 10 29.24289
 2018-Aug-09 12:05     01 24 36.287634 +00 10 29.35712
 2018-Aug-09 12:06     01 24 36.297380 +00 10 29.47135
 2018-Aug-09 12:07     01 24 36.307053 +00 10 29.58556
 2018-Aug-09 12:08     01 24 36.316655 +00 10 29.69976
 2018-Aug-09 12:09     01 24 36.326184 +00 10 29.81395
 2018-Aug-09 12:10     01 24 36.335643 +00 10 29.92812
 2018-Aug-09 12:11     01 24 36.345030 +00 10 30.04228
 2018-Aug-09 12:12     01 24 36.354346 +00 10 30.15643
 2018-Aug-09 12:13     01 24 36.363593 +00 10 30.27056
 2018-Aug-09 12:14     01 24 36.372770 +00 10 30.38468
 2018-Aug-09 12:15     01 24 36.381877 +00 10 30.49879
 2018-Aug-09 12:16     01 24 36.390916 +00 10 30.61289
 2018-Aug-09 12:17     01 24 36.399886 +00 10 30.72697
 2018-Aug-09 12:18     01 24 36.408788 +00 10 30.84104
 2018-Aug-09 12:19     01 24 36.417622 +00 10 30.95509
 2018-Aug-09 12:20     01 24 36.426389 +00 10 31.06913
 2018-Aug-09 12:21     01 24 36.435089 +00 10 31.18316
 2018-Aug-09 12:22     01 24 36.443723 +00 10 31.29718
 2018-Aug-09 12:23     01 24 36.452290 +00 10 31.41118
 2018-Aug-09 12:24     01 24 36.460792 +00 10 31.52517
 2018-Aug-09 12:25     01 24 36.469229 +00 10 31.63915
 2018-Aug-09 12:26     01 24 36.477602 +00 10 31.75311
 2018-Aug-09 12:27     01 24 36.485909 +00 10 31.86706
 2018-Aug-09 12:28     01 24 36.494153 +00 10 31.98099
 2018-Aug-09 12:29     01 24 36.502334 +00 10 32.09491
 2018-Aug-09 12:30     01 24 36.510451 +00 10 32.20882
 2018-Aug-09 12:31     01 24 36.518506 +00 10 32.32272
 2018-Aug-09 12:32     01 24 36.526499 +00 10 32.43660
 2018-Aug-09 12:33     01 24 36.534430 +00 10 32.55047
 2018-Aug-09 12:34     01 24 36.542300 +00 10 32.66432
 2018-Aug-09 12:35     01 24 36.550108 +00 10 32.77816
 2018-Aug-09 12:36     01 24 36.557857 +00 10 32.89199
 2018-Aug-09 12:37     01 24 36.565545 +00 10 33.00580
 2018-Aug-09 12:38     01 24 36.573174 +00 10 33.11960
 2018-Aug-09 12:39     01 24 36.580743 +00 10 33.23339
 2018-Aug-09 12:40     01 24 36.588254 +00 10 33.34716
 2018-Aug-09 12:41     01 24 36.595707 +00 10 33.46092
 2018-Aug-09 12:42     01 24 36.603102 +00 10 33.57467
 2018-Aug-09 12:43     01 24 36.610440 +00 10 33.68840
 2018-Aug-09 12:44     01 24 36.617720 +00 10 33.80212
 2018-Aug-09 12:45     01 24 36.624945 +00 10 33.91583
 2018-Aug-09 12:46     01 24 36.632113 +00 10 34.02952
 2018-Aug-09 12:47     01 24 36.639225 +00 10 34.14319
 2018-Aug-09 12:48     01 24 36.646283 +00 10 34.25686
 2018-Aug-09 12:49     01 24 36.653286 +00 10 34.37051
 2018-Aug-09 12:50     01 24 36.660234 +00 10 34.48415
 2018-Aug-09 12:51     01 24 36.667129 +00 10 34.59777
 2018-Aug-09 12:52     01 24 36.673971 +00 10 34.71138
 2018-Aug-09 12:53     01 24 36.680759 +00 10 34.82497
 2018-Aug-09 12:54     01 24 36.687496 +00 10 34.93855
 2018-Aug-09 12:55     01 24 36.694180 +00 10 35.05212
 2018-Aug-09 12:56     01 24 36.700813 +00 10 35.16567
 2018-Aug-09 12:57     01 24 36.707395 +00 10 35.27921
 2018-Aug-09 12:58     01 24 36.713926 +00 10 35.39274
 2018-Aug-09 12:59     01 24 36.720407 +00 10 35.50625
 2018-Aug-09 13:00     01 24 36.726838 +00 10 35.61975
 2018-Aug-09 13:01     01 24 36.733221 +00 10 35.73323
 2018-Aug-09 13:02     01 24 36.739554 +00 10 35.84670
 2018-Aug-09 13:03     01 24 36.745840 +00 10 35.96016
 2018-Aug-09 13:04     01 24 36.752077 +00 10 36.07360
 2018-Aug-09 13:05     01 24 36.758267 +00 10 36.18703
 2018-Aug-09 13:06     01 24 36.764411 +00 10 36.30044
 2018-Aug-09 13:07     01 24 36.770508 +00 10 36.41384
 2018-Aug-09 13:08     01 24 36.776559 +00 10 36.52723
 2018-Aug-09 13:09     01 24 36.782564 +00 10 36.64060
 2018-Aug-09 13:10     01 24 36.788525 +00 10 36.75396
 2018-Aug-09 13:11     01 24 36.794441 +00 10 36.86731
 2018-Aug-09 13:12     01 24 36.800313 +00 10 36.98064
 2018-Aug-09 13:13     01 24 36.806141 +00 10 37.09395
 2018-Aug-09 13:14     01 24 36.811927 +00 10 37.20725
 2018-Aug-09 13:15     01 24 36.817670 +00 10 37.32054
